GLOBALSTAR M035         
1 25851U 99037A   24345.90665955 -.00000069  00000+0 -20793-3 0  9992
2 25851  51.9933 114.8462 0014030  42.0950 107.1520 11.04534931 75455
GLOBALSTAR M032         
1 25852U 99037B   24345.85895481 -.00000076  00000+0 -29962-3 0  9991
2 25852  51.9970 313.1432 0010418 212.0521 147.9646 11.19054840113701
GLOBALSTAR M051         
1 25853U 99037C   24345.72720540 -.00000048  00000+0  58146-3 0  9995
2 25853  51.9764 135.5265 0000962 168.1354 191.9480 11.42199749110853
GLOBALSTAR M048         
1 25872U 99041A   24345.92729785 -.00000066  00000+0  10040-3 0  9994
2 25872  51.9388  62.7992 0013422 215.6374 316.1485 11.33852385103624
GLOBALSTAR M026         
1 25873U 99041B   24345.94709557 -.00000107  00000+0 -15753-2 0  9994
2 25873  51.9994 234.6969 0001218 346.3094  99.5910 11.06824577127648
GLOBALSTAR M043         
1 25874U 99041C   24345.82798660 -.00000028  00000+0  11837-2 0  9995
2 25874  51.9360 163.1741 0012898 355.8014  18.0523 11.25688658101662
